TIANLIAN 2-03           
1 53100U 22078A   26060.36850338  .00000054  00000+0  00000+0 0  9995
2 53100   0.3970  72.8438 0003377 251.4463 338.1146  1.00271949 13460
SBIRS GEO-6 (USA 336)   
1 53355U 22092A   26060.45600498 -.00000310  00000+0  00000+0 0  9999
2 53355   3.4427 315.7906 0002368  15.7183 130.8757  1.00271059 13154
EUTELSAT KONNECT VHTS   
1 53765U 22110A   26060.37633925 -.00000002  00000+0  00000+0 0  9995
2 53765   0.0590 102.1812 0002955 209.0855 346.0480  1.00270182  5750
ZHONGXING-1E            
1 53813U 22112A   26060.39193932 -.00000167  00000+0  00000+0 0  9994
2 53813   0.0129 122.7513 0003591 177.2406  81.6545  1.00269695 12763
SES-20                  
1 53960U 22123A   26060.39835645 -.00000119  00000+0  00000+0 0  9990
2 53960   0.0136 106.1571 0001279 317.8977 135.4192  1.00270289 12453
SES-21                  
1 53961U 22123B   26060.51878209  .00000051  00000+0  00000+0 0  9992
2 53961   0.0274  62.4328 0000996 281.7864 230.8472  1.00270681  6135
GALAXY 33 (G-33)        
1 54026U 22128A   26060.35092123  .00000061  00000+0  00000+0 0  9996
2 54026   0.0207  89.5662 0001965 243.1959 179.6830  1.00270270 12666
GALAXY 34 (G-34)        
1 54027U 22128B   26060.34954205  .00000041  00000+0  00000+0 0  9992
2 54027   0.0227 105.6029 0001391 236.1204 174.2470  1.00271938 12836
ANGOSAT 2               
1 54033U 22131A   26060.23933499  .00000117  00000+0  00000+0 0  9997
2 54033   0.0111 165.7183 0000345 296.7661 165.6835  1.00268935 12393
EUTELSAT HOTBIRD 13F    
1 54048U 22134A   26060.36850338  .00000068  00000+0  00000+0 0  9995
2 54048   0.0599 295.8457 0002150  59.7037 309.2542  1.00271526 12298
LDPE-2                  
1 54219U 22144A   26060.39566601 -.00000356  00000+0  00000+0 0  9997
2 54219   5.3810  64.3297 0000735 215.4730 121.9487  1.00558985 10754
EUTELSAT HOTBIRD 13G    
1 54225U 22146A   26060.36850338  .00000069  00000+0  00000+0 0  9996
2 54225   0.0505 235.3822 0001864 311.3288 118.1003  1.00271893  6382
ZHONGXING-19            
1 54230U 22148A   26057.84081096 -.00000093  00000+0  00000+0 0  9998
2 54230   0.0192 125.7800 0007651 129.3320   7.6307  1.00271644 12270
GALAXY 31 (G-31)        
1 54243U 22153A   26060.51491169 -.00000005  00000+0  00000+0 0  9995
2 54243   0.0213 119.3371 0001546 224.8276 239.4929  1.00271763  6054
GALAXY 32 (G-32)        
1 54244U 22153B   26060.21522517  .00000000  00000+0  00000+0 0  9999
2 54244   0.0199 134.5633 0003055 214.7397 156.2099  1.00269681 12065
EUTELSAT 10B            
1 54259U 22157A   26060.36850338  .00000049  00000+0  00000+0 0  9993
2 54259   0.0585 101.4633 0000941  35.9894 164.3219  1.00267244 11942
GALAXY 35 (G-35)        
1 54741U 22170A   26060.42868615 -.00000180  00000+0  00000+0 0  9995
2 54741   0.0171 121.6112 0002103 214.6678 244.1640  1.00271457 11815
GALAXY 36 (G-36)        
1 54742U 22170B   26060.43284493 -.00000203  00000+0  00000+0 0  9999
2 54742   0.0126 156.8334 0001882 234.1793 195.0232  1.00270978 11694
METEOSAT-12 (MTG-I1)    
1 54743U 22170C   26060.30449226 -.00000025  00000+0  00000+0 0  9995
2 54743   0.7416  28.6879 0001988 278.6270 321.0943  1.00274095 11890
SHIJIAN-23 (SJ-23)      
1 55131U 23002A   26060.77940340 -.00000342  00000+0  00000+0 0  9998
2 55131   3.4416  79.6889 0005871 259.3711 228.5460  1.00489262 11439
APSTAR-6E               
1 55239U 23005A   26060.50102280 -.00000336  00000+0  00000+0 0  9997
2 55239   0.0610 256.4169 0001702  37.7647 179.4674  1.00272604 17615
USA 342                 
1 55263U 23008A   26059.52478191  .00000121  00000+0  00000+0 0  9995
2 55263   0.0119 123.7851 0000335 334.6722 272.6049  1.00275491 11426
LDPE-3A                 
1 55264U 23008B   26060.17753007  .00000082  00000+0  00000+0 0  9997
2 55264   2.0665  83.0794 0000089 113.8138 253.4277  0.99997914 10745
ELEKTRO-L 4             
1 55506U 23016A   26060.09802885 -.00000078  00000+0  00000+0 0  9991
2 55506   0.1091 291.0529 0002070 354.3162  74.5702  1.00267670 11258
AMAZONAS NEXUS          
1 55508U 23017A   26060.29244552 -.00000301  00000+0  00000+0 0  9996
2 55508   0.0399  44.9699 0004683 315.5154 202.8701  1.00269998  5966
ZHONGXING-26            
1 55686U 23023A   26060.47193301 -.00000372  00000+0  00000+0 0  9993
2 55686   0.0638  73.8220 0003383 319.4328  61.0070  1.00270209 11151
LUCH-5X (OLYMP-K 2)     
1 55841U 23031A   26060.75503512  .00000015  00000+0  00000+0 0  9998
2 55841   0.0263  90.6628 0001672 123.7666 278.8944  1.00272925 10869
GAOFEN-13 02            
1 55912U 23036A   26060.44628400 -.00000237  00000+0  00000+0 0  9999
2 55912   1.0338 347.3841 0005148 333.5447 147.1290  1.00268561 11012
SES-18                  
1 55970U 23038A   26060.42669280 -.00000118  00000+0  00000+0 0  9992
2 55970   0.0668 273.2835 0002456  23.2371 273.1860  1.00265374 11022
SES-19                  
1 55971U 23038B   26060.52030640  .00000069  00000+0  00000+0 0  9990
2 55971   0.0592 283.7981 0001788  46.9124 240.9938  1.00271073 11001
INTELSAT 40E (IS-40E)   
1 56174U 23052A   26060.33100348 -.00000192  00000+0  00000+0 0  9992
2 56174   0.0108 160.0019 0000786 196.2460 191.0199  1.00265658 10745
VIASAT-3 F1             
1 56370U 23060A   26060.15739147  .00000000  00000+0  00000+0 0  9991
2 56370   0.0194 152.2932 0000509 270.4497  63.9230  1.00270278 10357
